{"type": "FeatureCollection", "features": [ {"type": "Feature", "properties": {"norad_id": 42741, "name": "EUTELSAT 172B", "group": "eutelsat", "lat": 0.017766312231200267, "lon": -143.68934375462072, "alt_km": 35786.19732409251, "timestamp": "2025-12-27T20:30:58.958780+00:00", "meta": {"OBJECT_NAME": "EUTELSAT 172B", "OBJECT_ID": "2017-029B", "EPOCH": "2025-12-27T11:35:38.600160", "MEAN_MOTION": 1.00270267, "ECCENTRICITY": 7e-06, "INCLINATION": 0.0375, "RA_OF_ASC_NODE": 156.3373, "ARG_OF_PERICENTER": 64.6039, "MEAN_ANOMALY": 221.1775, "EPHEMERIS_TYPE": 0, "CLASSIFICATION_TYPE": "U", "NORAD_CAT_ID": 42741, "ELEMENT_SET_NO": 999, "REV_AT_EPOCH": 3200, "BSTAR": 0, "MEAN_MOTION_DOT": 1.7e-07, "MEAN_MOTION_DDOT": 0}, "tle": {"line1": "1 42741U 17029B   25361.48308565  .00000017  00000+0  00000+0 0  9999", "line2": "2 42741   0.0375 156.3373 0000070  64.6039 221.1775  1.00270267 32003"}}, "geometry": {"type": "Point", "coordinates": [-143.68934375462072, 0.017766312231200267]}}, {"type": "Feature", "properties": {"norad_id": 44334, "name": "EUTELSAT 7C", "group": "eutelsat", "lat": -0.043258693237189505, "lon": 51.33941951662663, "alt_km": 35796.93824805365, "timestamp": "2025-12-27T20:30:58.958792+00:00", "meta": {"OBJECT_NAME": "EUTELSAT 7C", "OBJECT_ID": "2019-034B", "EPOCH": "2025-12-27T06:13:38.544096", "MEAN_MOTION": 1.00278899, "ECCENTRICITY": 0.0003693, "INCLINATION": 0.0728, "RA_OF_ASC_NODE": 180.5045, "ARG_OF_PERICENTER": 85.2079, "MEAN_ANOMALY": 290.6728, "EPHEMERIS_TYPE": 0, "CLASSIFICATION_TYPE": "U", "NORAD_CAT_ID": 44334, "ELEMENT_SET_NO": 999, "REV_AT_EPOCH": 511, "BSTAR": 0, "MEAN_MOTION_DOT": 7.2e-07, "MEAN_MOTION_DDOT": 0}, "tle": {"line1": "1 44334U 19034B   25361.25947389  .00000072  00000+0  00000+0 0  9996", "line2": "2 44334   0.0728 180.5045 0003693  85.2079 290.6728  1.00278899  5117"}}, "geometry": {"type": "Point", "coordinates": [51.33941951662663, -0.043258693237189505]}}, {"type": "Feature", "properties": {"norad_id": 44624, "name": "EUTELSAT 5 WEST B", "group": "eutelsat", "lat": 0.058685061000996, "lon": 39.34690972278888, "alt_km": 35794.10769187441, "timestamp": "2025-12-27T20:30:58.958803+00:00", "meta": {"OBJECT_NAME": "EUTELSAT 5 WEST B", "OBJECT_ID": "2019-067A", "EPOCH": "2025-12-27T04:42:38.440800", "MEAN_MOTION": 1.00271215, "ECCENTRICITY": 0.0003275, "INCLINATION": 0.0618, "RA_OF_ASC_NODE": 348.7107, "ARG_OF_PERICENTER": 285.9376, "MEAN_ANOMALY": 246.9417, "EPHEMERIS_TYPE": 0, "CLASSIFICATION_TYPE": "U", "NORAD_CAT_ID": 44624, "ELEMENT_SET_NO": 999, "REV_AT_EPOCH": 2271, "BSTAR": 0, "MEAN_MOTION_DOT": -2e-07, "MEAN_MOTION_DDOT": 0}, "tle": {"line1": "1 44624U 19067A   25361.19627825 -.00000020  00000+0  00000+0 0  9991", "line2": "2 44624   0.0618 348.7107 0003275 285.9376 246.9417  1.00271215 22718"}}, "geometry": {"type": "Point", "coordinates": [39.34690972278888, 0.058685061000996]}}, {"type": "Feature", "properties": {"norad_id": 45027, "name": "EUTELSAT KONNECT", "group": "eutelsat", "lat": -0.03117591536168556, "lon": 51.56632326872016, "alt_km": 35789.09815993869, "timestamp": "2025-12-27T20:30:58.958815+00:00", "meta": {"OBJECT_NAME": "EUTELSAT KONNECT", "OBJECT_ID": "2020-005B", "EPOCH": "2025-12-27T06:13:38.544096", "MEAN_MOTION": 1.00279327, "ECCENTRICITY": 0.0002063, "INCLINATION": 0.0663, "RA_OF_ASC_NODE": 94.1475, "ARG_OF_PERICENTER": 191.175, "MEAN_ANOMALY": 271.2936, "EPHEMERIS_TYPE": 0, "CLASSIFICATION_TYPE": "U", "NORAD_CAT_ID": 45027, "ELEMENT_SET_NO": 999, "REV_AT_EPOCH": 2261, "BSTAR": 0, "MEAN_MOTION_DOT": 7.3e-07, "MEAN_MOTION_DDOT": 0}, "tle": {"line1": "1 45027U 20005B   25361.25947389  .00000073  00000+0  00000+0 0  9997", "line2": "2 45027   0.0663  94.1475 0002063 191.1750 271.2936  1.00279327 22612"}}, "geometry": {"type": "Point", "coordinates": [51.56632326872016, -0.03117591536168556]}}, {"type": "Feature", "properties": {"norad_id": 49056, "name": "EUTELSAT QUANTUM", "group": "eutelsat", "lat": 0.030063313478714555, "lon": 92.0259764085434, "alt_km": 35801.27841626911, "timestamp": "2025-12-27T20:30:58.958827+00:00", "meta": {"OBJECT_NAME": "EUTELSAT QUANTUM", "OBJECT_ID": "2021-069B", "EPOCH": "2025-12-27T11:30:58.854240", "MEAN_MOTION": 1.00271756, "ECCENTRICITY": 0.0003672, "INCLINATION": 0.0155, "RA_OF_ASC_NODE": 35.3932, "ARG_OF_PERICENTER": 248.088, "MEAN_ANOMALY": 33.1736, "EPHEMERIS_TYPE": 0, "CLASSIFICATION_TYPE": "U", "NORAD_CAT_ID": 49056, "ELEMENT_SET_NO": 999, "REV_AT_EPOCH": 1620, "BSTAR": 0, "MEAN_MOTION_DOT": 1.48e-06, "MEAN_MOTION_DDOT": 0}, "tle": {"line1": "1 49056U 21069B   25361.47984785  .00000148  00000+0  00000+0 0  9992", "line2": "2 49056   0.0155  35.3932 0003672 248.0880  33.1736  1.00271756 16201"}}, "geometry": {"type": "Point", "coordinates": [92.0259764085434, 0.030063313478714555]}}, {"type": "Feature", "properties": {"norad_id": 53765, "name": "EUTELSAT KONNECT VHTS", "group": "eutelsat", "lat": -0.033704393084293086, "lon": 47.02805294183847, "alt_km": 35797.780037538476, "timestamp": "2025-12-27T20:30:58.958839+00:00", "meta": {"OBJECT_NAME": "EUTELSAT KONNECT VHTS", "OBJECT_ID": "2022-110A", "EPOCH": "2025-12-26T23:19:08.450112", "MEAN_MOTION": 1.00268307, "ECCENTRICITY": 0.00027888, "INCLINATION": 0.0593, "RA_OF_ASC_NODE": 98.4997, "ARG_OF_PERICENTER": 152.36, "MEAN_ANOMALY": 197.3421, "EPHEMERIS_TYPE": 0, "CLASSIFICATION_TYPE": "U", "NORAD_CAT_ID": 53765, "ELEMENT_SET_NO": 999, "REV_AT_EPOCH": 510, "BSTAR": 0, "MEAN_MOTION_DOT": 3.9e-07, "MEAN_MOTION_DDOT": 0}, "tle": {"line1": "1 53765U 22110A   25360.97162558  .00000039  00000+0  00000+0 0  9991", "line2": "2 53765   0.0593  98.4997 0002788 152.3600 197.3421  1.00268307  5103"}}, "geometry": {"type": "Point", "coordinates": [47.02805294183847, -0.033704393084293086]}}, {"type": "Feature", "properties": {"norad_id": 54048, "name": "EUTELSAT HOTBIRD 13F", "group": "eutelsat", "lat": 0.05129957209025592, "lon": 57.32354722589401, "alt_km": 35781.325221495514, "timestamp": "2025-12-27T20:30:58.958850+00:00", "meta": {"OBJECT_NAME": "EUTELSAT HOTBIRD 13F", "OBJECT_ID": "2022-134A", "EPOCH": "2025-12-26T22:46:38.586144", "MEAN_MOTION": 1.00271009, "ECCENTRICITY": 0.00023679, "INCLINATION": 0.0512, "RA_OF_ASC_NODE": 291.2358, "ARG_OF_PERICENTER": 65.5103, "MEAN_ANOMALY": 93.5854, "EPHEMERIS_TYPE": 0, "CLASSIFICATION_TYPE": "U", "NORAD_CAT_ID": 54048, "ELEMENT_SET_NO": 999, "REV_AT_EPOCH": 1165, "BSTAR": 0, "MEAN_MOTION_DOT": 1.09e-06, "MEAN_MOTION_DDOT": 0}, "tle": {"line1": "1 54048U 22134A   25360.94905771  .00000109  00000+0  00000+0 0  9999", "line2": "2 54048   0.0512 291.2358 0002367  65.5103  93.5854  1.00271009 11656"}}, "geometry": {"type": "Point", "coordinates": [57.32354722589401, 0.05129957209025592]}}, {"type": "Feature", "properties": {"norad_id": 54225, "name": "EUTELSAT HOTBIRD 13G", "group": "eutelsat", "lat": 0.00914167071144233, "lon": 57.223787115840004, "alt_km": 35798.10729696198, "timestamp": "2025-12-27T20:30:58.958862+00:00", "meta": {"OBJECT_NAME": "EUTELSAT HOTBIRD 13G", "OBJECT_ID": "2022-146A", "EPOCH": "2025-12-26T22:46:38.586144", "MEAN_MOTION": 1.00258057, "ECCENTRICITY": 0.00022142, "INCLINATION": 0.0501, "RA_OF_ASC_NODE": 221.1292, "ARG_OF_PERICENTER": 348.4298, "MEAN_ANOMALY": 240.7501, "EPHEMERIS_TYPE": 0, "CLASSIFICATION_TYPE": "U", "NORAD_CAT_ID": 54225, "ELEMENT_SET_NO": 999, "REV_AT_EPOCH": 573, "BSTAR": 0, "MEAN_MOTION_DOT": 1.07e-06, "MEAN_MOTION_DDOT": 0}, "tle": {"line1": "1 54225U 22146A   25360.94905771  .00000107  00000+0  00000+0 0  9997", "line2": "2 54225   0.0501 221.1292 0002214 348.4298 240.7501  1.00258057  5734"}}, "geometry": {"type": "Point", "coordinates": [57.223787115840004, 0.00914167071144233]}}, {"type": "Feature", "properties": {"norad_id": 54259, "name": "EUTELSAT 10B", "group": "eutelsat", "lat": -0.025355761792767585, "lon": 54.32661185306401, "alt_km": 35785.02865775684, "timestamp": "2025-12-27T20:30:58.958874+00:00", "meta": {"OBJECT_NAME": "EUTELSAT 10B", "OBJECT_ID": "2022-157A", "EPOCH": "2025-12-26T23:21:15.746688", "MEAN_MOTION": 1.0026978, "ECCENTRICITY": 3.879e-05, "INCLINATION": 0.0595, "RA_OF_ASC_NODE": 95.7073, "ARG_OF_PERICENTER": 337.8466, "MEAN_ANOMALY": 22.488, "EPHEMERIS_TYPE": 0, "CLASSIFICATION_TYPE": "U", "NORAD_CAT_ID": 54259, "ELEMENT_SET_NO": 999, "REV_AT_EPOCH": 1130, "BSTAR": 0, "MEAN_MOTION_DOT": 9e-07, "MEAN_MOTION_DDOT": 0}, "tle": {"line1": "1 54259U 22157A   25360.97309892  .00000090  00000+0  00000+0 0  9992", "line2": "2 54259   0.0595  95.7073 0000387 337.8466  22.4880  1.00269780 11304"}}, "geometry": {"type": "Point", "coordinates": [54.32661185306401, -0.025355761792767585]}}, {"type": "Feature", "properties": {"norad_id": 59346, "name": "EUTELSAT 36D", "group": "eutelsat", "lat": 0.033917431358793416, "lon": 80.23573223403787, "alt_km": 35786.507938873154, "timestamp": "2025-12-27T20:30:58.958886+00:00", "meta": {"OBJECT_NAME": "EUTELSAT 36D", "OBJECT_ID": "2024-059A", "EPOCH": "2025-12-27T00:47:38.503392", "MEAN_MOTION": 1.00278293, "ECCENTRICITY": 0.00010384, "INCLINATION": 0.0199, "RA_OF_ASC_NODE": 25.5491, "ARG_OF_PERICENTER": 292.1883, "MEAN_ANOMALY": 185.8304, "EPHEMERIS_TYPE": 0, "CLASSIFICATION_TYPE": "U", "NORAD_CAT_ID": 59346, "ELEMENT_SET_NO": 999, "REV_AT_EPOCH": 642, "BSTAR": 0, "MEAN_MOTION_DOT": 0, "MEAN_MOTION_DDOT": 0}, "tle": {"line1": "1 59346U 24059A   25361.03308453  .00000000  00000+0  00000+0 0  9998", "line2": "2 59346   0.0199  25.5491 0001038 292.1883 185.8304  1.00278293  6422"}}, "geometry": {"type": "Point", "coordinates": [80.23573223403787, 0.033917431358793416]}}]}